STARLINK-1446
1 15663C 20035G   21326.14772549 -.00017562  00000-0 -11766-2 0  3267
2 15663  53.0531 268.0809 0002004  61.9146 266.9736 15.06416039    14
